[{"OBJECT_NAME":"ONEWEB-0264","OBJECT_ID":"2021-060R","EPOCH":"2026-04-04T03:55:06.989376","MEAN_MOTION":13.16594359,"ECCENTRICITY":0.000191,"INCLINATION":87.9044,"RA_OF_ASC_NODE":243.4954,"ARG_OF_PERICENTER":105.171,"MEAN_ANOMALY":254.9632,"EPHEMERIS_TYPE":0,"CLASSIFICATION_TYPE":"U","NORAD_CAT_ID":48982,"ELEMENT_SET_NO":999,"REV_AT_EPOCH":22985,"BSTAR":0.00014105999999999998,"MEAN_MOTION_DOT":6.7e-07,"MEAN_MOTION_DDOT":0.0},{"OBJECT_NAME":"ONEWEB-0266","OBJECT_ID":"2021-060T","EPOCH":"2026-04-03T21:08:08.007072","MEAN_MOTION":13.16593513,"ECCENTRICITY":0.0001694,"INCLINATION":87.9046,"RA_OF_ASC_NODE":243.5413,"ARG_OF_PERICENTER":97.6719,"MEAN_ANOMALY":262.4605,"EPHEMERIS_TYPE":0,"CLASSIFICATION_TYPE":"U","NORAD_CAT_ID":48984,"ELEMENT_SET_NO":999,"REV_AT_EPOCH":22980,"BSTAR":3.6643000000000002e-06,"MEAN_MOTION_DOT":1.4e-07,"MEAN_MOTION_DDOT":0.0},{"OBJECT_NAME":"ONEWEB-0267","OBJECT_ID":"2021-060U","EPOCH":"2026-04-03T21:24:06.024096","MEAN_MOTION":13.16595209,"ECCENTRICITY":0.000197,"INCLINATION":87.9046,"RA_OF_ASC_NODE":243.5354,"ARG_OF_PERICENTER":101.0119,"MEAN_ANOMALY":259.1234,"EPHEMERIS_TYPE":0,"CLASSIFICATION_TYPE":"U","NORAD_CAT_ID":48985,"ELEMENT_SET_NO":999,"REV_AT_EPOCH":22981,"BSTAR":-0.0001034,"MEAN_MOTION_DOT":-2.7e-07,"MEAN_MOTION_DDOT":0.0},{"OBJECT_NAME":"ONEWEB-0268","OBJECT_ID":"2021-060V","EPOCH":"2026-04-04T03:56:14.479008","MEAN_MOTION":13.16595342,"ECCENTRICITY":0.0001741,"INCLINATION":87.9045,"RA_OF_ASC_NODE":243.4906,"ARG_OF_PERICENTER":101.3335,"MEAN_ANOMALY":258.7992,"EPHEMERIS_TYPE":0,"CLASSIFICATION_TYPE":"U","NORAD_CAT_ID":48986,"ELEMENT_SET_NO":999,"REV_AT_EPOCH":23011,"BSTAR":0.00016183000000000001,"MEAN_MOTION_DOT":7.5e-07,"MEAN_MOTION_DDOT":0.0},{"OBJECT_NAME":"ONEWEB-0269","OBJECT_ID":"2021-060W","EPOCH":"2026-04-03T22:00:34.240608","MEAN_MOTION":13.16595683,"ECCENTRICITY":0.0001555,"INCLINATION":87.9032,"RA_OF_ASC_NODE":243.551,"ARG_OF_PERICENTER":105.4479,"MEAN_ANOMALY":254.6824,"EPHEMERIS_TYPE":0,"CLASSIFICATION_TYPE":"U","NORAD_CAT_ID":48987,"ELEMENT_SET_NO":999,"REV_AT_EPOCH":22985,"BSTAR":3.94e-05,"MEAN_MOTION_DOT":2.8e-07,"MEAN_MOTION_DDOT":0.0},{"OBJECT_NAME":"ONEWEB-0270","OBJECT_ID":"2021-060X","EPOCH":"2026-04-04T03:53:57.726816","MEAN_MOTION":13.16595449,"ECCENTRICITY":0.0002071,"INCLINATION":87.9039,"RA_OF_ASC_NODE":243.4926,"ARG_OF_PERICENTER":93.1027,"MEAN_ANOMALY":267.0341,"EPHEMERIS_TYPE":0,"CLASSIFICATION_TYPE":"U","NORAD_CAT_ID":48988,"ELEMENT_SET_NO":999,"REV_AT_EPOCH":22992,"BSTAR":0.000279,"MEAN_MOTION_DOT":1.2e-06,"MEAN_MOTION_DDOT":0.0},{"OBJECT_NAME":"ONEWEB-0271","OBJECT_ID":"2021-060Y","EPOCH":"2026-04-04T03:35:43.591776","MEAN_MOTION":13.16593156,"ECCENTRICITY":0.0002068,"INCLINATION":87.904,"RA_OF_ASC_NODE":243.4863,"ARG_OF_PERICENTER":98.7191,"MEAN_ANOMALY":261.4174,"EPHEMERIS_TYPE":0,"CLASSIFICATION_TYPE":"U","NORAD_CAT_ID":48989,"ELEMENT_SET_NO":999,"REV_AT_EPOCH":22992,"BSTAR":-5.3606e-05,"MEAN_MOTION_DOT":-8e-08,"MEAN_MOTION_DDOT":0.0},{"OBJECT_NAME":"ONEWEB-0272","OBJECT_ID":"2021-060Z","EPOCH":"2026-04-04T04:07:37.925472","MEAN_MOTION":13.16596824,"ECCENTRICITY":0.000191,"INCLINATION":87.904,"RA_OF_ASC_NODE":243.493,"ARG_OF_PERICENTER":107.8689,"MEAN_ANOMALY":252.2651,"EPHEMERIS_TYPE":0,"CLASSIFICATION_TYPE":"U","NORAD_CAT_ID":48990,"ELEMENT_SET_NO":999,"REV_AT_EPOCH":22987,"BSTAR":0.00016624,"MEAN_MOTION_DOT":7.6e-07,"MEAN_MOTION_DDOT":0.0},{"OBJECT_NAME":"ONEWEB-0273","OBJECT_ID":"2021-060AA","EPOCH":"2026-04-03T21:21:49.204512","MEAN_MOTION":13.16595466,"ECCENTRICITY":0.0001877,"INCLINATION":87.9046,"RA_OF_ASC_NODE":243.5475,"ARG_OF_PERICENTER":97.6096,"MEAN_ANOMALY":262.5248,"EPHEMERIS_TYPE":0,"CLASSIFICATION_TYPE":"U","NORAD_CAT_ID":48991,"ELEMENT_SET_NO":999,"REV_AT_EPOCH":22981,"BSTAR":-0.00022655,"MEAN_MOTION_DOT":-7.4e-07,"MEAN_MOTION_DDOT":0.0},{"OBJECT_NAME":"ONEWEB-0274","OBJECT_ID":"2021-060AB","EPOCH":"2026-04-04T03:26:36.353184","MEAN_MOTION":13.16595654,"ECCENTRICITY":0.0001831,"INCLINATION":87.9031,"RA_OF_ASC_NODE":243.5074,"ARG_OF_PERICENTER":111.0941,"MEAN_ANOMALY":249.0386,"EPHEMERIS_TYPE":0,"CLASSIFICATION_TYPE":"U","NORAD_CAT_ID":48992,"ELEMENT_SET_NO":999,"REV_AT_EPOCH":22988,"BSTAR":5.2362e-05,"MEAN_MOTION_DOT":3.3e-07,"MEAN_MOTION_DDOT":0.0},{"OBJECT_NAME":"ONEWEB-0275","OBJECT_ID":"2021-060AC","EPOCH":"2026-04-03T21:42:20.271456","MEAN_MOTION":13.16595086,"ECCENTRICITY":0.0001841,"INCLINATION":87.9042,"RA_OF_ASC_NODE":243.5366,"ARG_OF_PERICENTER":101.9953,"MEAN_ANOMALY":258.1384,"EPHEMERIS_TYPE":0,"CLASSIFICATION_TYPE":"U","NORAD_CAT_ID":48993,"ELEMENT_SET_NO":999,"REV_AT_EPOCH":22978,"BSTAR":-0.00023698,"MEAN_MOTION_DOT":-7.8e-07,"MEAN_MOTION_DDOT":0.0},{"OBJECT_NAME":"ONEWEB-0276","OBJECT_ID":"2021-060AD","EPOCH":"2026-04-03T22:30:12.191904","MEAN_MOTION":13.16590268,"ECCENTRICITY":0.0001764,"INCLINATION":87.9048,"RA_OF_ASC_NODE":243.5309,"ARG_OF_PERICENTER":101.3977,"MEAN_ANOMALY":258.7352,"EPHEMERIS_TYPE":0,"CLASSIFICATION_TYPE":"U","NORAD_CAT_ID":48994,"ELEMENT_SET_NO":999,"REV_AT_EPOCH":22980,"BSTAR":-0.0030001,"MEAN_MOTION_DOT":-1.134e-05,"MEAN_MOTION_DDOT":0.0},{"OBJECT_NAME":"ONEWEB-0277","OBJECT_ID":"2021-060AE","EPOCH":"2026-04-03T22:48:27.069120","MEAN_MOTION":13.16593594,"ECCENTRICITY":0.0001896,"INCLINATION":87.9034,"RA_OF_ASC_NODE":243.5411,"ARG_OF_PERICENTER":98.4784,"MEAN_ANOMALY":261.6562,"EPHEMERIS_TYPE":0,"CLASSIFICATION_TYPE":"U","NORAD_CAT_ID":48995,"ELEMENT_SET_NO":999,"REV_AT_EPOCH":22979,"BSTAR":7.1027e-05,"MEAN_MOTION_DOT":4e-07,"MEAN_MOTION_DDOT":0.0},{"OBJECT_NAME":"ONEWEB-0278","OBJECT_ID":"2021-060AF","EPOCH":"2026-04-04T04:03:03.926880","MEAN_MOTION":13.16595808,"ECCENTRICITY":0.0001522,"INCLINATION":87.9046,"RA_OF_ASC_NODE":243.4821,"ARG_OF_PERICENTER":94.7983,"MEAN_ANOMALY":265.3322,"EPHEMERIS_TYPE":0,"CLASSIFICATION_TYPE":"U","NORAD_CAT_ID":48996,"ELEMENT_SET_NO":999,"REV_AT_EPOCH":22995,"BSTAR":0.00028191,"MEAN_MOTION_DOT":1.21e-06,"MEAN_MOTION_DDOT":0.0},{"OBJECT_NAME":"ONEWEB-0279","OBJECT_ID":"2021-060AG","EPOCH":"2026-04-04T04:14:29.335488","MEAN_MOTION":13.16595532,"ECCENTRICITY":0.0001999,"INCLINATION":87.9045,"RA_OF_ASC_NODE":243.4797,"ARG_OF_PERICENTER":102.4376,"MEAN_ANOMALY":257.6978,"EPHEMERIS_TYPE":0,"CLASSIFICATION_TYPE":"U","NORAD_CAT_ID":48997,"ELEMENT_SET_NO":999,"REV_AT_EPOCH":22988,"BSTAR":0.000374,"MEAN_MOTION_DOT":1.56e-06,"MEAN_MOTION_DDOT":0.0},{"OBJECT_NAME":"ONEWEB-0280","OBJECT_ID":"2021-060AH","EPOCH":"2026-04-03T21:18:23.151744","MEAN_MOTION":13.16596411,"ECCENTRICITY":0.000184,"INCLINATION":87.9047,"RA_OF_ASC_NODE":243.5418,"ARG_OF_PERICENTER":88.8966,"MEAN_ANOMALY":271.2376,"EPHEMERIS_TYPE":0,"CLASSIFICATION_TYPE":"U","NORAD_CAT_ID":48998,"ELEMENT_SET_NO":999,"REV_AT_EPOCH":22978,"BSTAR":-8.4283e-05,"MEAN_MOTION_DOT":-1.9e-07,"MEAN_MOTION_DDOT":0.0},{"OBJECT_NAME":"ONEWEB-0281","OBJECT_ID":"2021-060AJ","EPOCH":"2026-04-03T21:26:22.847136","MEAN_MOTION":13.16595412,"ECCENTRICITY":0.0001714,"INCLINATION":87.9042,"RA_OF_ASC_NODE":243.5349,"ARG_OF_PERICENTER":104.5372,"MEAN_ANOMALY":255.5949,"EPHEMERIS_TYPE":0,"CLASSIFICATION_TYPE":"U","NORAD_CAT_ID":48999,"ELEMENT_SET_NO":999,"REV_AT_EPOCH":22985,"BSTAR":-8.217000000000001e-05,"MEAN_MOTION_DOT":-1.9e-07,"MEAN_MOTION_DDOT":0.0},{"OBJECT_NAME":"ONEWEB-0282","OBJECT_ID":"2021-060AK","EPOCH":"2026-04-04T03:37:59.839392","MEAN_MOTION":13.16595396,"ECCENTRICITY":0.0001872,"INCLINATION":87.9044,"RA_OF_ASC_NODE":243.4936,"ARG_OF_PERICENTER":96.978,"MEAN_ANOMALY":263.1563,"EPHEMERIS_TYPE":0,"CLASSIFICATION_TYPE":"U","NORAD_CAT_ID":49000,"ELEMENT_SET_NO":999,"REV_AT_EPOCH":22986,"BSTAR":1.3025999999999999e-05,"MEAN_MOTION_DOT":1.8e-07,"MEAN_MOTION_DDOT":0.0},{"OBJECT_NAME":"ONEWEB-0283","OBJECT_ID":"2021-060AL","EPOCH":"2026-04-03T21:53:44.065248","MEAN_MOTION":13.16595468,"ECCENTRICITY":0.0001927,"INCLINATION":87.9041,"RA_OF_ASC_NODE":243.5411,"ARG_OF_PERICENTER":101.514,"MEAN_ANOMALY":258.6208,"EPHEMERIS_TYPE":0,"CLASSIFICATION_TYPE":"U","NORAD_CAT_ID":49001,"ELEMENT_SET_NO":999,"REV_AT_EPOCH":22984,"BSTAR":-0.00022409,"MEAN_MOTION_DOT":-7.3e-07,"MEAN_MOTION_DDOT":0.0},{"OBJECT_NAME":"ONEWEB-0284","OBJECT_ID":"2021-060AM","EPOCH":"2026-04-03T21:44:37.427136","MEAN_MOTION":13.16595046,"ECCENTRICITY":0.0001706,"INCLINATION":87.9046,"RA_OF_ASC_NODE":243.5344,"ARG_OF_PERICENTER":88.8157,"MEAN_ANOMALY":271.3169,"EPHEMERIS_TYPE":0,"CLASSIFICATION_TYPE":"U","NORAD_CAT_ID":49002,"ELEMENT_SET_NO":999,"REV_AT_EPOCH":22982,"BSTAR":-0.00011937,"MEAN_MOTION_DOT":-3.3e-07,"MEAN_MOTION_DDOT":0.0},{"OBJECT_NAME":"ONEWEB-0285","OBJECT_ID":"2021-075A","EPOCH":"2026-04-04T06:18:15.548544","MEAN_MOTION":13.12445958,"ECCENTRICITY":0.0001844,"INCLINATION":87.9018,"RA_OF_ASC_NODE":5.3406,"ARG_OF_PERICENTER":77.6516,"MEAN_ANOMALY":282.4819,"EPHEMERIS_TYPE":0,"CLASSIFICATION_TYPE":"U","NORAD_CAT_ID":49075,"ELEMENT_SET_NO":999,"REV_AT_EPOCH":22551,"BSTAR":0.00067135,"MEAN_MOTION_DOT":2.54e-06,"MEAN_MOTION_DDOT":0.0},{"OBJECT_NAME":"ONEWEB-0286","OBJECT_ID":"2021-075B","EPOCH":"2026-04-04T05:52:26.328288","MEAN_MOTION":13.12442024,"ECCENTRICITY":0.0001594,"INCLINATION":87.9007,"RA_OF_ASC_NODE":5.3685,"ARG_OF_PERICENTER":80.0016,"MEAN_ANOMALY":280.1293,"EPHEMERIS_TYPE":0,"CLASSIFICATION_TYPE":"U","NORAD_CAT_ID":49076,"ELEMENT_SET_NO":999,"REV_AT_EPOCH":22486,"BSTAR":-0.0010323,"MEAN_MOTION_DOT":-3.59e-06,"MEAN_MOTION_DDOT":0.0},{"OBJECT_NAME":"ONEWEB-0287","OBJECT_ID":"2021-075C","EPOCH":"2026-04-04T06:44:17.937888","MEAN_MOTION":13.17650373,"ECCENTRICITY":0.000139,"INCLINATION":87.9183,"RA_OF_ASC_NODE":20.5438,"ARG_OF_PERICENTER":75.0436,"MEAN_ANOMALY":285.0849,"EPHEMERIS_TYPE":0,"CLASSIFICATION_TYPE":"U","NORAD_CAT_ID":49077,"ELEMENT_SET_NO":999,"REV_AT_EPOCH":22389,"BSTAR":6.5846e-05,"MEAN_MOTION_DOT":3.8e-07,"MEAN_MOTION_DDOT":0.0}]